LEMUR-2-AMANDA-SVANTE   
1 48269U 21034B   26068.77637527  .00030872  00000+0  11134-2 0  9996
2 48269  97.5829 144.8625 0002703 205.4721 154.6385 15.28469003265849
STARLINK-32915          
1 63152U 25043W   26067.90914219  .00036119  00000+0  13153-2 0  9991
2 63152  42.9991  27.4604 0001231 246.1784 113.8939 15.27588605 57165
